STARLINK-2542
1 28292C 21036S   21325.15019117  .00000091  00000-0  61156-5 0  3252
2 28292  53.0550 287.5535 0001696  56.4327  62.4506 15.06386271    12
